NORAD_CAT_ID,OBJECT_NAME,OBJECT_TYPE,EPOCH,MEAN_MOTION,ECCENTRICITY,INCLINATION,RA_OF_ASC_NODE,ARG_OF_PERICENTER,MEAN_ANOMALY,BSTAR,MEAN_MOTION_DOT,MEAN_MOTION_DDOT,TLE_LINE0,TLE_LINE1,TLE_LINE2,SEMIMAJOR_AXIS,PERIOD,APOGEE,PERIGEE,DECAYED
54792.0,STARLINK-5431,PAYLOAD,2024-07-24 08:58:56,15.08846156,0.0001135,53.2153,187.2563,79.4424,280.6696,-0.00012256,-2.238e-05,0.0,0 STARLINK-5431,1 54792U 22175AL  24206.37425983 -.00002238  00000-0 -12256-3 0  9995,2 54792  53.2153 187.2563 0001135  79.4424 280.6696 15.08846156 90358,6917.862,95.437,540.512,538.941,0.0
54792.0,STARLINK-5431,PAYLOAD,2024-07-25 04:03:33,15.08843793,0.0001243,53.2155,183.6871,86.5791,273.5343,6.1319e-05,6.88e-06,0.0,0 STARLINK-5431,1 54792U 22175AL  24207.16914065  .00000688  00000-0  61319-4 0  9997,2 54792  53.2155 183.6871 0001243  86.5791 273.5343 15.08843793 90475,6917.869,95.437,540.594,538.874,0.0
54792.0,STARLINK-5431,PAYLOAD,2024-07-26 03:54:20,15.08851211,0.000145,53.216,179.2262,106.9626,253.1525,0.00036494,5.527e-05,0.0,0 STARLINK-5431,1 54792U 22175AL  24208.16273843  .00005527  00000-0  36494-3 0  9992,2 54792  53.2160 179.2262 0001450 106.9626 253.1525 15.08851211 88466,6917.846,95.437,540.714,538.708,0.0
54792.0,STARLINK-5431,PAYLOAD,2024-07-26 07:05:06,15.08863115,0.0001385,53.2157,178.632,100.0145,260.1004,0.00064424,9.986e-05,0.0,0 STARLINK-5431,1 54792U 22175AL  24208.29521507  .00009986  00000-0  64424-3 0  9996,2 54792  53.2157 178.6320 0001385 100.0145 260.1004 15.08863115 88486,6917.81,95.436,540.633,538.717,0.0
54792.0,STARLINK-5431,PAYLOAD,2024-07-26 15:02:01,15.08870273,0.0001562,53.2158,177.1451,72.6545,287.4618,0.00073803,0.00011487,0.0,0 STARLINK-5431,1 54792U 22175AL  24208.62641080  .00011487  00000-0  73803-3 0  9992,2 54792  53.2158 177.1451 0001562  72.6545 287.4618 15.08870273 90693,6917.788,95.436,540.733,538.572,0.0
54792.0,STARLINK-5431,PAYLOAD,2024-07-27 03:45:07,15.08838368,0.0001264,53.2149,174.7657,76.8003,283.313,-0.00017592,-3.086e-05,0.0,0 STARLINK-5431,1 54792U 22175AL  24209.15633481 -.00003086  00000-0 -17592-3 0  9998,2 54792  53.2149 174.7657 0001264  76.8003 283.3130 15.08838368 88610,6917.885,95.438,540.625,538.876,0.0
54792.0,STARLINK-5431,PAYLOAD,2024-07-27 05:20:30,15.08837353,0.0001317,53.2164,174.4753,88.6626,271.4517,-0.00019659,-3.415e-05,0.0,0 STARLINK-5431,1 54792U 22175AL  24209.22257577 -.00003415  00000-0 -19659-3 0  9996,2 54792  53.2164 174.4753 0001317  88.6626 271.4517 15.08837353 90783,6917.888,95.438,540.665,538.842,0.0
54792.0,STARLINK-5431,PAYLOAD,2024-07-27 21:14:22,15.08836734,0.0001322,53.2154,171.496,76.6374,283.4766,6.7372e-06,-1.81e-06,0.0,0 STARLINK-5431,1 54792U 22175AL  24209.88497936 -.00000181  00000-0  67372-5 0  9996,2 54792  53.2154 171.4960 0001322  76.6374 283.4766 15.08836734 90884,6917.89,95.438,540.67,538.841,0.0
54792.0,STARLINK-5431,PAYLOAD,2024-07-28 05:11:18,15.08834101,0.0001245,53.2153,170.0091,86.2031,273.9103,1.4556e-05,-5.6e-07,0.0,0 STARLINK-5431,1 54792U 22175AL  24210.21618146 -.00000056  00000-0  14556-4 0  9999,2 54792  53.2153 170.0091 0001245  86.2031 273.9103 15.08834101 88774,6917.898,95.438,540.625,538.902,0.0
54792.0,STARLINK-5431,PAYLOAD,2024-07-28 14:43:37,15.08838615,0.0001177,53.215,168.2241,86.3698,273.7429,0.00029483,4.407e-05,0.0,0 STARLINK-5431,1 54792U 22175AL  24210.61362280  .00004407  00000-0  29483-3 0  9995,2 54792  53.2150 168.2241 0001177  86.3698 273.7429 15.08838615 90991,6917.885,95.438,540.564,538.935,0.0
54792.0,STARLINK-5431,PAYLOAD,2024-07-29 03:26:42,15.08833475,0.0001219,53.2157,165.8453,90.4325,269.6807,0.000215,3.135e-05,0.0,0 STARLINK-5431,1 54792U 22175AL  24211.14354850  .00003135  00000-0  21500-3 0  9997,2 54792  53.2157 165.8453 0001219  90.4325 269.6807 15.08833475 91079,6917.9,95.438,540.609,538.922,0.0
54792.0,STARLINK-5431,PAYLOAD,2024-07-29 20:55:57,15.08841163,0.0001682,53.2178,162.5745,100.3974,259.7207,0.00024414,3.6e-05,0.0,0 STARLINK-5431,1 54792U 22175AL  24211.87218839  .00003600  00000-0  24414-3 0  9997,2 54792  53.2178 162.5745 0001682 100.3974 259.7207 15.08841163 89024,6917.877,95.437,540.905,538.578,0.0
54792.0,STARLINK-5431,PAYLOAD,2024-07-30 03:17:29,15.08839942,0.0001505,53.2169,161.3855,97.138,262.9783,0.00018929,2.726e-05,0.0,0 STARLINK-5431,1 54792U 22175AL  24212.13714913  .00002726  00000-0  18929-3 0  9993,2 54792  53.2169 161.3855 0001505  97.1380 262.9783 15.08839942 91223,6917.881,95.438,540.787,538.704,0.0
54792.0,STARLINK-5431,PAYLOAD,2024-07-31 03:08:16,15.08838004,0.0001541,53.2168,156.9257,98.5079,261.6088,0.00010583,1.397e-05,0.0,0 STARLINK-5431,1 54792U 22175AL  24213.13075106  .00001397  00000-0  10583-3 0  9999,2 54792  53.2168 156.9257 0001541  98.5079 261.6088 15.08838004 89216,6917.886,95.438,540.818,538.685,0.0
54792.0,STARLINK-5431,PAYLOAD,2024-07-31 20:37:31,15.08837606,0.0001507,53.2165,153.6529,102.3687,257.7474,0.00010392,1.366e-05,0.0,0 STARLINK-5431,1 54792U 22175AL  24213.85939194  .00001366  00000-0  10392-3 0  9998,2 54792  53.2165 153.6529 0001507 102.3687 257.7474 15.08837606 91484,6917.888,95.438,540.795,538.71,0.0
54792.0,STARLINK-5431,PAYLOAD,2024-08-01 02:59:03,15.08838976,0.0001382,53.2168,152.4612,100.9381,259.1767,6.432e-05,7.36e-06,0.0,0 STARLINK-5431,1 54792U 22175AL  24214.12435185  .00000736  00000-0  64320-4 0  9991,2 54792  53.2168 152.4612 0001382 100.9381 259.1767 15.08838976 91520,6917.884,95.438,540.705,538.792,0.0
54792.0,STARLINK-5431,PAYLOAD,2024-08-02 02:49:50,15.08842557,0.0001382,53.2162,148.0038,103.9297,256.1849,0.00013267,1.824e-05,0.0,0 STARLINK-5431,1 54792U 22175AL  24215.11794914  .00001824  00000-0  13267-3 0  9991,2 54792  53.2162 148.0038 0001382 103.9297 256.1849 15.08842557 89510,6917.873,95.437,540.694,538.782,0.0
54792.0,STARLINK-5431,PAYLOAD,2024-08-02 12:22:09,15.08853305,0.0001359,53.2169,146.2188,80.8895,279.2251,0.00026661,3.959e-05,0.0,0 STARLINK-5431,1 54792U 22175AL  24215.51538327  .00003959  00000-0  26661-3 0  9992,2 54792  53.2169 146.2188 0001359  80.8895 279.2251 15.08853305 89576,6917.84,95.437,540.645,538.765,0.0
54792.0,STARLINK-5431,PAYLOAD,2024-08-03 04:16:01,15.08835392,0.0001626,53.2176,143.2491,91.7088,268.4091,5.5053e-05,5.88e-06,0.0,0 STARLINK-5431,1 54792U 22175AL  24216.17779531  .00000588  00000-0  55053-4 0  9992,2 54792  53.2176 143.2491 0001626  91.7088 268.4091 15.08835392 89679,6917.894,95.438,540.884,538.635,0.0
54792.0,STARLINK-5431,PAYLOAD,2024-08-03 12:12:56,15.08845201,0.0001539,53.2173,141.761,87.1898,272.9271,0.00013181,1.811e-05,0.0,0 STARLINK-5431,1 54792U 22175AL  24216.50899075  .00001811  00000-0  13181-3 0  9990,2 54792  53.2173 141.7610 0001539  87.1898 272.9271 15.08845201 89729,6917.864,95.437,540.794,538.665,0.0
54792.0,STARLINK-5431,PAYLOAD,2024-08-04 04:06:48,15.08840412,0.0001845,53.2161,138.7853,82.1819,277.9383,7.456e-05,8.99e-06,0.0,0 STARLINK-5431,1 54792U 22175AL  24217.17139630  .00000899  00000-0  74560-4 0  9992,2 54792  53.2161 138.7853 0001845  82.1819 277.9383 15.08840412 89828,6917.879,95.438,541.02,538.468,0.0
54792.0,STARLINK-5431,PAYLOAD,2024-08-04 12:03:44,15.08843665,0.0001941,53.2171,137.2981,83.1269,276.9944,6.5849e-05,7.6e-06,0.0,0 STARLINK-5431,1 54792U 22175AL  24217.50259454  .00000760  00000-0  65849-4 0  9993,2 54792  53.2171 137.2981 0001941  83.1269 276.9944 15.08843665 92034,6917.869,95.437,541.077,538.391,0.0
54792.0,STARLINK-5431,PAYLOAD,2024-08-05 02:22:11,15.08859596,0.0001454,53.2168,134.6218,87.1525,272.9634,0.00054278,8.366e-05,0.0,0 STARLINK-5431,1 54792U 22175AL  24218.09874815  .00008366  00000-0  54278-3 0  9995,2 54792  53.2168 134.6218 0001454  87.1525 272.9634 15.08859596 89962,6917.82,95.436,540.691,538.68,0.0
54792.0,STARLINK-5431,PAYLOAD,2024-08-05 23:02:14,15.08805648,0.0001779,53.2158,130.7625,64.2666,295.851,-0.00055803,-9.15e-05,0.0,0 STARLINK-5431,1 54792U 22175AL  24218.95988863 -.00009150  00000-0 -55803-3 0  9998,2 54792  53.2158 130.7625 0001779  64.2666 295.8510 15.08805648 92254,6917.985,95.44,541.081,538.62,0.0
54792.0,STARLINK-5431,PAYLOAD,2024-08-06 00:37:37,15.08806404,0.0001455,53.2154,130.4626,72.043,288.0721,-0.0006764,-0.00011027,0.0,0 STARLINK-5431,1 54792U 22175AL  24219.02612522 -.00011027  00000-0 -67640-3 0  9991,2 54792  53.2154 130.4626 0001455  72.0430 288.0721 15.08806404 90106,6917.983,95.44,540.855,538.842,0.0
54792.0,STARLINK-5431,PAYLOAD,2024-08-06 11:45:19,15.0881654,0.000178,53.2193,128.3765,87.6669,272.4527,0.00011931,1.61e-05,0.0,0 STARLINK-5431,1 54792U 22175AL  24219.48981013  .00001610  00000-0  11931-3 0  9992,2 54792  53.2193 128.3765 0001780  87.6669 272.4527 15.08816540 90176,6917.952,95.439,541.048,538.586,0.0
54792.0,STARLINK-5431,PAYLOAD,2024-08-06 21:17:38,15.08841282,0.0001592,53.2148,126.5963,56.9107,303.2038,0.0014571,0.00022979,0.0,0 STARLINK-5431,1 54792U 22175AL  24219.88725331  .00022979  00000-0  14571-2 0  9998,2 54792  53.2148 126.5963 0001592  56.9107 303.2038 15.08841282 92390,6917.876,95.437,540.843,538.64,0.0
54792.0,STARLINK-5431,PAYLOAD,2024-08-07 00:28:24,15.08864617,0.000153,53.2162,126.0006,68.9546,291.161,0.0023575,0.00037457,0.0,0 STARLINK-5431,1 54792U 22175AL  24220.01973083  .00037457  00000-0  23575-2 0  9995,2 54792  53.2162 126.0006 0001530  68.9546 291.1610 15.08864617 90252,6917.805,95.436,540.729,538.612,0.0
54792.0,STARLINK-5431,PAYLOAD,2024-08-07 21:08:24,15.08871593,0.0001774,53.2164,122.1334,109.5339,250.5844,0.0013037,0.00020539,0.0,0 STARLINK-5431,1 54792U 22175AL  24220.88084022  .00020539  00000-0  13037-2 0  9991,2 54792  53.2164 122.1334 0001774 109.5339 250.5844 15.08871593 92540,6917.784,95.436,540.876,538.422,0.0
54792.0,STARLINK-5431,PAYLOAD,2024-08-08 03:29:56,15.08870367,0.0001291,53.2168,120.9484,82.3556,277.7583,0.00063361,9.819e-05,0.0,0 STARLINK-5431,1 54792U 22175AL  24221.14579682  .00009819  00000-0  63361-3 0  9996,2 54792  53.2168 120.9484 0001291  82.3556 277.7583 15.08870367 92582,6917.788,95.436,540.546,538.759,0.0
